sat29288
1 29288U 81120S   20046.80104680 -.00000116  00000-0 -14257-2 0  9991
2 29288  82.9596 249.7220 0010898 214.6530 145.3820 12.06713661233399
